{
 "generated_at": "2026-07-02T08:12:02Z",
 "sources": [
  {
   "name": "CelesTrak",
   "url": "https://celestrak.org/NORAD/elements/",
   "license": "frei verfügbar; Attribution. Ursprünglich USSPACECOM/Space-Track."
  },
  {
   "name": "GCAT (J. McDowell, planet4589.org)",
   "url": "https://planet4589.org/space/gcat/",
   "license": "CC-BY 4.0"
  }
 ],
 "satellites": [
  {
   "norad": 36744,
   "name": "COMS 1",
   "intl": "2010-032A",
   "group": "weather",
   "gcat": {
    "class": null,
    "category": null,
    "owner": null,
    "state": null
   },
   "omm": {
    "OBJECT_NAME": "COMS 1",
    "OBJECT_ID": "2010-032A",
    "EPOCH": "2026-07-01T23:21:38.039616",
    "MEAN_MOTION": 0.99168833,
    "ECCENTRICITY": 0.00118181,
    "INCLINATION": 4.8409,
    "RA_OF_ASC_NODE": 75.1829,
    "ARG_OF_PERICENTER": 13.7699,
    "MEAN_ANOMALY": 196.0256,
    "EPHEMERIS_TYPE": 0,
    "CLASSIFICATION_TYPE": "U",
    "NORAD_CAT_ID": 36744,
    "ELEMENT_SET_NO": 999,
    "REV_AT_EPOCH": 5123,
    "BSTAR": 0,
    "MEAN_MOTION_DOT": -7.2e-7,
    "MEAN_MOTION_DDOT": 0
   }
  },
  {
   "norad": 31598,
   "name": "COSMO-SKYMED 1",
   "intl": "2007-023A",
   "group": "resource",
   "gcat": {
    "class": "D",
    "category": "IMG-R",
    "owner": "ASI",
    "state": "I"
   },
   "omm": {
    "OBJECT_NAME": "COSMO-SKYMED 1",
    "OBJECT_ID": "2007-023A",
    "EPOCH": "2026-07-01T23:20:23.689824",
    "MEAN_MOTION": 14.97174842,
    "ECCENTRICITY": 0.00014091,
    "INCLINATION": 97.8854,
    "RA_OF_ASC_NODE": 14.9531,
    "ARG_OF_PERICENTER": 83.7111,
    "MEAN_ANOMALY": 276.4271,
    "EPHEMERIS_TYPE": 0,
    "CLASSIFICATION_TYPE": "U",
    "NORAD_CAT_ID": 31598,
    "ELEMENT_SET_NO": 999,
    "REV_AT_EPOCH": 3200,
    "BSTAR": 0.00018851957,
    "MEAN_MOTION_DOT": 0.00002119,
    "MEAN_MOTION_DDOT": 0
   }
  },
  {
   "norad": 32376,
   "name": "COSMO-SKYMED 2",
   "intl": "2007-059A",
   "group": "resource",
   "gcat": {
    "class": "D",
    "category": "IMG-R",
    "owner": "ASI",
    "state": "I"
   },
   "omm": {
    "OBJECT_NAME": "COSMO-SKYMED 2",
    "OBJECT_ID": "2007-059A",
    "EPOCH": "2026-07-01T22:42:01.165248",
    "MEAN_MOTION": 14.82157615,
    "ECCENTRICITY": 0.00013277,
    "INCLINATION": 97.8889,
    "RA_OF_ASC_NODE": 6.3298,
    "ARG_OF_PERICENTER": 90.3508,
    "MEAN_ANOMALY": 269.7857,
    "EPHEMERIS_TYPE": 0,
    "CLASSIFICATION_TYPE": "U",
    "NORAD_CAT_ID": 32376,
    "ELEMENT_SET_NO": 999,
    "REV_AT_EPOCH": 419,
    "BSTAR": 0.000061106471,
    "MEAN_MOTION_DOT": 0.00000434,
    "MEAN_MOTION_DDOT": 0
   }
  },
  {
   "norad": 33412,
   "name": "COSMO-SKYMED 3",
   "intl": "2008-054A",
   "group": "resource",
   "gcat": {
    "class": null,
    "category": null,
    "owner": null,
    "state": null
   },
   "omm": {
    "OBJECT_NAME": "COSMO-SKYMED 3",
    "OBJECT_ID": "2008-054A",
    "EPOCH": "2026-07-01T22:48:09.387360",
    "MEAN_MOTION": 15.07045951,
    "ECCENTRICITY": 0.00147839,
    "INCLINATION": 97.8263,
    "RA_OF_ASC_NODE": 41.7651,
    "ARG_OF_PERICENTER": 212.6527,
    "MEAN_ANOMALY": 147.3787,
    "EPHEMERIS_TYPE": 0,
    "CLASSIFICATION_TYPE": "U",
    "NORAD_CAT_ID": 33412,
    "ELEMENT_SET_NO": 999,
    "REV_AT_EPOCH": 95916,
    "BSTAR": 0.00034704318,
    "MEAN_MOTION_DOT": 0.0000515,
    "MEAN_MOTION_DDOT": 0
   }
  },
  {
   "norad": 37216,
   "name": "COSMO-SKYMED 4",
   "intl": "2010-060A",
   "group": "resource",
   "gcat": {
    "class": "D",
    "category": "IMG-R",
    "owner": "ASI",
    "state": "I"
   },
   "omm": {
    "OBJECT_NAME": "COSMO-SKYMED 4",
    "OBJECT_ID": "2010-060A",
    "EPOCH": "2026-07-01T23:00:15.600096",
    "MEAN_MOTION": 14.82159043,
    "ECCENTRICITY": 0.00014827,
    "INCLINATION": 97.8883,
    "RA_OF_ASC_NODE": 6.3441,
    "ARG_OF_PERICENTER": 82.7093,
    "MEAN_ANOMALY": 277.4289,
    "EPHEMERIS_TYPE": 0,
    "CLASSIFICATION_TYPE": "U",
    "NORAD_CAT_ID": 37216,
    "ELEMENT_SET_NO": 999,
    "REV_AT_EPOCH": 84675,
    "BSTAR": 0.00010454839,
    "MEAN_MOTION_DOT": 0.0000078,
    "MEAN_MOTION_DDOT": 0
   }
  },
  {
   "norad": 44873,
   "name": "CSG-1",
   "intl": "2019-092A",
   "group": "resource",
   "gcat": {
    "class": "D",
    "category": "IMG-R",
    "owner": "MDDI/ASI",
    "state": "I"
   },
   "omm": {
    "OBJECT_NAME": "CSG-1",
    "OBJECT_ID": "2019-092A",
    "EPOCH": "2026-07-01T23:18:28.045152",
    "MEAN_MOTION": 14.82156882,
    "ECCENTRICITY": 0.0001408,
    "INCLINATION": 97.8891,
    "RA_OF_ASC_NODE": 6.3597,
    "ARG_OF_PERICENTER": 90.6257,
    "MEAN_ANOMALY": 269.5118,
    "EPHEMERIS_TYPE": 0,
    "CLASSIFICATION_TYPE": "U",
    "NORAD_CAT_ID": 44873,
    "ELEMENT_SET_NO": 999,
    "REV_AT_EPOCH": 35366,
    "BSTAR": 0.000063308168,
    "MEAN_MOTION_DOT": 0.00000452,
    "MEAN_MOTION_DDOT": 0
   }
  },
  {
   "norad": 51444,
   "name": "CSG-2",
   "intl": "2022-008A",
   "group": "resource",
   "gcat": {
    "class": "D",
    "category": "IMG-R",
    "owner": "MDDI/ASI",
    "state": "I"
   },
   "omm": {
    "OBJECT_NAME": "CSG-2",
    "OBJECT_ID": "2022-008A",
    "EPOCH": "2026-07-01T22:29:50.972064",
    "MEAN_MOTION": 14.82156002,
    "ECCENTRICITY": 0.0001568,
    "INCLINATION": 97.8881,
    "RA_OF_ASC_NODE": 6.3208,
    "ARG_OF_PERICENTER": 85.2328,
    "MEAN_ANOMALY": 274.9064,
    "EPHEMERIS_TYPE": 0,
    "CLASSIFICATION_TYPE": "U",
    "NORAD_CAT_ID": 51444,
    "ELEMENT_SET_NO": 999,
    "REV_AT_EPOCH": 23877,
    "BSTAR": 0.00011997918,
    "MEAN_MOTION_DOT": 0.00000903,
    "MEAN_MOTION_DDOT": 0
   }
  },
  {
   "norad": 67304,
   "name": "CSG-3",
   "intl": "2026-001A",
   "group": "resource",
   "gcat": {
    "class": "D",
    "category": "IMG-R",
    "owner": "MDDI/ASI",
    "state": "I"
   },
   "omm": {
    "OBJECT_NAME": "CSG-3",
    "OBJECT_ID": "2026-001A",
    "EPOCH": "2026-07-01T23:36:41.251392",
    "MEAN_MOTION": 14.82163894,
    "ECCENTRICITY": 0.0001502,
    "INCLINATION": 97.8889,
    "RA_OF_ASC_NODE": 6.3715,
    "ARG_OF_PERICENTER": 95.8658,
    "MEAN_ANOMALY": 264.2727,
    "EPHEMERIS_TYPE": 0,
    "CLASSIFICATION_TYPE": "U",
    "NORAD_CAT_ID": 67304,
    "ELEMENT_SET_NO": 999,
    "REV_AT_EPOCH": 2665,
    "BSTAR": 0.000047173008,
    "MEAN_MOTION_DOT": 0.00000323,
    "MEAN_MOTION_DDOT": 0
   }
  },
  {
   "norad": 41887,
   "name": "CYGFM01",
   "intl": "2016-078D",
   "group": "weather",
   "gcat": {
    "class": "C",
    "category": "EOSCI",
    "owner": "LARCN/SWRIB",
    "state": "US"
   },
   "omm": {
    "OBJECT_NAME": "CYGFM01",
    "OBJECT_ID": "2016-078D",
    "EPOCH": "2026-07-01T23:21:00.902304",
    "MEAN_MOTION": 15.57998021,
    "ECCENTRICITY": 0.00079736,
    "INCLINATION": 34.9383,
    "RA_OF_ASC_NODE": 163.5685,
    "ARG_OF_PERICENTER": 274.7901,
    "MEAN_ANOMALY": 85.1913,
    "EPHEMERIS_TYPE": 0,
    "CLASSIFICATION_TYPE": "U",
    "NORAD_CAT_ID": 41887,
    "ELEMENT_SET_NO": 999,
    "REV_AT_EPOCH": 53101,
    "BSTAR": 0.00036727084,
    "MEAN_MOTION_DOT": 0.00028542,
    "MEAN_MOTION_DDOT": 0
   }
  },
  {
   "norad": 41886,
   "name": "CYGFM02",
   "intl": "2016-078C",
   "group": "weather",
   "gcat": {
    "class": "C",
    "category": "EOSCI",
    "owner": "LARCN/SWRIB",
    "state": "US"
   },
   "omm": {
    "OBJECT_NAME": "CYGFM02",
    "OBJECT_ID": "2016-078C",
    "EPOCH": "2026-07-01T22:48:18.385056",
    "MEAN_MOTION": 15.65476653,
    "ECCENTRICITY": 0.00075638,
    "INCLINATION": 34.9398,
    "RA_OF_ASC_NODE": 123.8122,
    "ARG_OF_PERICENTER": 317.6781,
    "MEAN_ANOMALY": 42.3362,
    "EPHEMERIS_TYPE": 0,
    "CLASSIFICATION_TYPE": "U",
    "NORAD_CAT_ID": 41886,
    "ELEMENT_SET_NO": 999,
    "REV_AT_EPOCH": 53148,
    "BSTAR": 0.00042047093,
    "MEAN_MOTION_DOT": 0.0004382,
    "MEAN_MOTION_DDOT": 0
   }
  },
  {
   "norad": 41891,
   "name": "CYGFM03",
   "intl": "2016-078H",
   "group": "weather",
   "gcat": {
    "class": "C",
    "category": "EOSCI",
    "owner": "LARCN/SWRIB",
    "state": "US"
   },
   "omm": {
    "OBJECT_NAME": "CYGFM03",
    "OBJECT_ID": "2016-078H",
    "EPOCH": "2026-07-01T23:07:57.637056",
    "MEAN_MOTION": 15.60872913,
    "ECCENTRICITY": 0.00069823,
    "INCLINATION": 34.9394,
    "RA_OF_ASC_NODE": 133.0731,
    "ARG_OF_PERICENTER": 303.169,
    "MEAN_ANOMALY": 56.8366,
    "EPHEMERIS_TYPE": 0,
    "CLASSIFICATION_TYPE": "U",
    "NORAD_CAT_ID": 41891,
    "ELEMENT_SET_NO": 999,
    "REV_AT_EPOCH": 53128,
    "BSTAR": 0.00039031084,
    "MEAN_MOTION_DOT": 0.00033872,
    "MEAN_MOTION_DDOT": 0
   }
  },
  {
   "norad": 41885,
   "name": "CYGFM04",
   "intl": "2016-078B",
   "group": "weather",
   "gcat": {
    "class": "C",
    "category": "EOSCI",
    "owner": "LARCN/SWRIB",
    "state": "US"
   },
   "omm": {
    "OBJECT_NAME": "CYGFM04",
    "OBJECT_ID": "2016-078B",
    "EPOCH": "2026-07-01T21:56:58.768512",
    "MEAN_MOTION": 15.62337835,
    "ECCENTRICITY": 0.00066518,
    "INCLINATION": 34.9316,
    "RA_OF_ASC_NODE": 129.9565,
    "ARG_OF_PERICENTER": 314.4169,
    "MEAN_ANOMALY": 45.6012,
    "EPHEMERIS_TYPE": 0,
    "CLASSIFICATION_TYPE": "U",
    "NORAD_CAT_ID": 41885,
    "ELEMENT_SET_NO": 999,
    "REV_AT_EPOCH": 53130,
    "BSTAR": 0.00040503158,
    "MEAN_MOTION_DOT": 0.00037225,
    "MEAN_MOTION_DDOT": 0
   }
  },
  {
   "norad": 41884,
   "name": "CYGFM05",
   "intl": "2016-078A",
   "group": "weather",
   "gcat": {
    "class": "C",
    "category": "EOSCI",
    "owner": "LARCN/SWRIB",
    "state": "US"
   },
   "omm": {
    "OBJECT_NAME": "CYGFM05",
    "OBJECT_ID": "2016-078A",
    "EPOCH": "2026-07-01T08:23:35.501280",
    "MEAN_MOTION": 15.57267856,
    "ECCENTRICITY": 0.00081655,
    "INCLINATION": 34.9552,
    "RA_OF_ASC_NODE": 166.7634,
    "ARG_OF_PERICENTER": 275.0442,
    "MEAN_ANOMALY": 84.935,
    "EPHEMERIS_TYPE": 0,
    "CLASSIFICATION_TYPE": "U",
    "NORAD_CAT_ID": 41884,
    "ELEMENT_SET_NO": 999,
    "REV_AT_EPOCH": 53096,
    "BSTAR": 0.0004006345,
    "MEAN_MOTION_DOT": 0.00030302,
    "MEAN_MOTION_DDOT": 0
   }
  }
 ]
}
